0 COSMOS 1741 DEB *
1 17843U 86030D   13283.51662160  .00000731  00000-0  23689-3 0  1752
2 17843 074.0362 209.4837 0015049 355.2530 119.2924 14.40669467436831
0 COSMOS 1741 DEB *
1 17843U 86030D   13285.79850257  .00000729  00000-0  23646-3 0  1761
2 17843 074.0362 205.2628 0015125 350.7371 073.7995 14.40672054437166
0 COSMOS 1741 DEB *
1 17843U 86030D   13287.89071850  .00001201  00000-0  38377-3 0  1772
2 17843 074.0361 201.3930 0015195 346.4771 124.7916 14.40677248437464
0 COSMOS 1741 DEB *
1 17843U 86030D   13289.89814177  .00000926  00000-0  29774-3 0  1786
2 17843 074.0359 197.6802 0015260 342.5332 095.9124 14.40681559437751
0 COSMOS 1741 DEB *
1 17843U 86030D   13292.11827669  .00000927  00000-0  29821-3 0  1790
2 17843 074.0356 193.5739 0015324 338.3298 090.1031 14.40685642438074
0 COSMOS 1741 DEB *
1 17843U 86030D   13294.14815619  .00000904  00000-0  29090-3 0  1802
2 17843 074.0353 189.8192 0015375 334.2912 177.8030 14.40690502438361
0 COSMOS 1741 DEB *
1 17843U 86030D   13296.15609554  .00000931  00000-0  29942-3 0  1811
2 17843 074.0352 186.1052 0015436 330.3213 151.7199 14.40694706438653
